TRANSPORTER-12 OBJECT BA
1 62657U 25009BA  26068.70118713  .00011330  00000+0  42733-3 0  9991
2 62657  97.3985 151.1390 0000403 234.6623 125.4579 15.27214003 63739
STARLINK-36103          
1 66985U 25288AC  26068.16440462  .00026678  00000+0  97589-3 0  9997
2 66985  43.0021  26.7029 0001900 273.6990  86.3644 15.27565504 15207
