[{"OBJECT_NAME":"TRANSPORTER-12 OBJECT BA","OBJECT_ID":"2025-009BA","EPOCH":"2026-03-09T16:49:42.568896","MEAN_MOTION":15.27214003,"ECCENTRICITY":4.03e-5,"INCLINATION":97.3985,"RA_OF_ASC_NODE":151.139,"ARG_OF_PERICENTER":234.6623,"MEAN_ANOMALY":125.4579,"EPHEMERIS_TYPE":0,"CLASSIFICATION_TYPE":"U","NORAD_CAT_ID":62657,"ELEMENT_SET_NO":999,"REV_AT_EPOCH":6373,"BSTAR":0.00042732654,"MEAN_MOTION_DOT":0.0001133,"MEAN_MOTION_DDOT":0},{"OBJECT_NAME":"STARLINK-36103","OBJECT_ID":"2025-288AC","EPOCH":"2026-03-09T03:56:44.559168","MEAN_MOTION":15.27565504,"ECCENTRICITY":0.00019003,"INCLINATION":43.0021,"RA_OF_ASC_NODE":26.7029,"ARG_OF_PERICENTER":273.699,"MEAN_ANOMALY":86.3644,"EPHEMERIS_TYPE":0,"CLASSIFICATION_TYPE":"U","NORAD_CAT_ID":66985,"ELEMENT_SET_NO":999,"REV_AT_EPOCH":1520,"BSTAR":0.00097588876,"MEAN_MOTION_DOT":0.00026678,"MEAN_MOTION_DDOT":0}]
